ONEWEB-0683             
1 56719U 23068K   25336.82751273  .00000016  00000+0  84013-5 0  9998
2 56719  87.8990 298.3631 0001584  77.6495 282.4812 13.15548847123604
ONEWEB-0684             
1 56720U 23068L   25336.83541808  .00000008  00000+0 -11887-4 0  9992
2 56720  87.8987 298.3560 0003087  64.8329 295.3122 13.15550627123434
ONEWEB-0686             
1 56721U 23068M   25336.80786769  .00000223  00000+0  56298-3 0  9999
2 56721  87.9030 267.9057 0001765  63.7327 296.3984 13.15056180125877
ONEWEB-0694             
1 56722U 23068N   25336.83429166 -.00000006  00000+0 -48940-4 0  9995
2 56722  87.9049 267.8370 0001340  68.1329 291.9945 13.16594297125937
ONEWEB-0696             
1 56723U 23068P   25336.64053601  .00000020  00000+0  18241-4 0  9997
2 56723  87.8975 298.4484 0002182  80.9382 279.1995 13.15548604123523
ONEWEB-0703             
1 56724U 23068Q   25336.80216061  .00000082  00000+0  18257-3 0  9991
2 56724  87.8974 298.3981 0002831  89.8069 270.3386 13.15549028123433
ONEWEB-0721             
1 56725U 23068R   25336.80321650  .00000069  00000+0  13207-3 0  9998
2 56725  86.6792 148.1608 0001403  92.0702 268.0592 13.22453109131985
ONEWEB-0015             
1 61594U 24188A   25336.84528760  .00000542  00000+0  14937-2 0  9993
2 61594  87.8861  60.1994 0001704 123.8122 236.3169 13.11416778 58726
